{
    "links": {
        "self": "http://www.neowsapp.com/rest/v1/neo/3599303?api_key=iIulBulltgU6a56xZRHN4H3l9WmuAYTsLGpBGhQ2"
    },
    "id": "3599303",
    "neo_reference_id": "3599303",
    "name": "(2012 CR36)",
    "designation": "2012 CR36",
    "nasa_jpl_url": "http://ssd.jpl.nasa.gov/sbdb.cgi?sstr=3599303",
    "absolute_magnitude_h": 23.1,
    "estimated_diameter": {
        "kilometers": {
            "estimated_diameter_min": 0.063760979,
            "estimated_diameter_max": 0.1425738833
        },
        "meters": {
            "estimated_diameter_min": 63.7609789875,
            "estimated_diameter_max": 142.5738833281
        },
        "miles": {
            "estimated_diameter_min": 0.0396192233,
            "estimated_diameter_max": 0.0885912765
        },
        "feet": {
            "estimated_diameter_min": 209.1895703015,
            "estimated_diameter_max": 467.7620993781
        }
    },
    "is_potentially_hazardous_asteroid": false,
    "close_approach_data": [
        {
            "close_approach_date": "2012-03-03",
            "close_approach_date_full": "2012-Mar-03 23:38",
            "epoch_date_close_approach": 1330817880000,
            "relative_velocity": {
                "kilometers_per_second": "15.202938264",
                "kilometers_per_hour": "54730.5777505699",
                "miles_per_hour": "34007.4526028472"
            },
            "miss_distance": {
                "astronomical": "0.2198128941",
                "lunar": "85.5072158049",
                "kilometers": "32883540.755895567",
                "miles": "20432884.7402581446"
            },
            "orbiting_body": "Earth"
        },
        {
            "close_approach_date": "2012-08-14",
            "close_approach_date_full": "2012-Aug-14 09:39",
            "epoch_date_close_approach": 1344937140000,
            "relative_velocity": {
                "kilometers_per_second": "13.4002027601",
                "kilometers_per_hour": "48240.7299362477",
                "miles_per_hour": "29974.9135539979"
            },
            "miss_distance": {
                "astronomical": "0.4033740966",
                "lunar": "156.9125235774",
                "kilometers": "60343905.664534242",
                "miles": "37495964.2689748596"
            },
            "orbiting_body": "Earth"
        }
    ],
    "orbital_data": {
        "orbit_id": "8",
        "orbit_determination_date": "2017-04-06 08:50:59",
        "first_observation_date": "2012-02-15",
        "last_observation_date": "2012-02-29",
        "data_arc_in_days": 14,
        "observations_used": 29,
        "orbit_uncertainty": "8",
        "minimum_orbit_intersection": ".107631",
        "jupiter_tisserand_invariant": "4.654",
        "epoch_osculation": "2455975.5",
        "eccentricity": ".3583110766985667",
        "semi_major_axis": "1.369237560317051",
        "inclination": "26.97282137826458",
        "ascending_node_longitude": "329.9708119373908",
        "orbital_period": "585.2165949296727",
        "perihelion_distance": ".8786245758237295",
        "perihelion_argument": "275.9719594348571",
        "aphelion_distance": "1.859850544810371",
        "perihelion_time": "2456067.310616223108",
        "mean_anomaly": "303.5220700734045",
        "mean_motion": ".6151568549474614",
        "equinox": "J2000",
        "orbit_class": {
            "orbit_class_type": "APO",
            "orbit_class_description": "Near-Earth asteroid orbits which cross the Earth’s orbit similar to that of 1862 Apollo",
            "orbit_class_range": "a (semi-major axis) > 1.0 AU; q (perihelion) < 1.017 AU"
        }
    },
    "is_sentry_object": false
}